     2.100          NAVIGATION                              RINEX VERSION / TYPE
fic2rin                                 05/05/2016 00:20:06 PGM / RUN BY / DATE
                                                            END OF HEADER
31 16  5  4  4  0  0.0  .270707998425D-03 -.181898940355D-11  .000000000000D+00
     .200000000000D+02 -.370625000000D+02  .460912055980D-08  .245527733629D+01
    -.184774398804D-05  .818790681660D-02  .331550836563D-05  .515373294067D+04
     .273600000000D+06 -.260770320892D-07  .138474403078D+01  .108033418655D-06
     .971192852709D+00  .323062500000D+03 -.399527322054D+00 -.831927510263D-08
    -.313941648358D-09  .100000000000D+01  .189500000000D+04  .000000000000D+00
     .240000000000D+01  .000000000000D+00 -.135041773319D-07  .200000000000D+02
     .266406000000D+06  .400000000000D+01
32 16  5  4  4  0  0.0 -.119302421808D-05 -.488853402203D-11  .000000000000D+00
     .730000000000D+02  .108750000000D+03  .458447667614D-08 -.503680223823D+00
     .546500086784D-05  .292116543278D-03  .796653330326D-05  .515359569931D+04
     .273600000000D+06  .745058059692D-07  .298565202611D+00  .335276126862D-07
     .960225674785D+00  .226218750000D+03 -.240556886190D+01 -.826427281156D-08
     .325727853587D-09  .100000000000D+01  .189500000000D+04  .000000000000D+00
     .340000000000D+01  .000000000000D+00  .465661287308D-09  .730000000000D+02
     .266406000000D+06  .400000000000D+01
 8 16  5  4  3 59 44.0 -.338004902005D-04 -.147792889038D-11  .000000000000D+00
     .500000000000D+01  .586250000000D+02  .465376527657D-08  .403132750954D-01
     .289455056190D-05  .178595155012D-02  .914745032787D-05  .515368303871D+04
     .273584000000D+06  .279396772385D-07 -.284389244664D+01 -.186264514923D-07
     .963245282530D+00  .201531250000D+03 -.114166338883D+01 -.820462746995D-08
     .693957477543D-09  .100000000000D+01  .189500000000D+04  .000000000000D+00
     .240000000000D+01  .000000000000D+00  .465661287308D-08  .500000000000D+01
     .266706000000D+06  .400000000000D+01
30 16  5  4  3 59 44.0  .122277066112D-03  .329691829393D-11  .000000000000D+00
     .000000000000D+00 -.370937500000D+02  .506449667090D-08  .270925198978D+01
    -.192038714886D-05  .199898437131D-02  .244006514549D-05  .515360490799D+04
     .273584000000D+06  .465661287308D-07  .141998789681D+01  .186264514923D-08
     .952151812351D+00  .328156250000D+03  .298518344467D+01 -.863893127473D-08
    -.242152943785D-09  .100000000000D+01  .189500000000D+04  .000000000000D+00
     .240000000000D+01  .000000000000D+00  .325962901115D-08  .000000000000D+00
     .270696000000D+06  .400000000000D+01
 4 16  5  4  4  0  0.0 -.255647581071D-03 -.682121026330D-12  .000000000000D+00
     .750000000000D+02 -.533437500000D+02  .499627954367D-08  .191992224721D+00
    -.282749533653D-05  .846651731990D-02  .126250088215D-04  .515364606285D+04
     .273600000000D+06 -.316649675369D-07  .242238085690D+01  .135973095894D-06
     .983411258615D+00  .150093750000D+03  .877702975029D+00 -.780889670046D-08
    -.150720563831D-09  .100000000000D+01  .189500000000D+04  .000000000000D+00
     .340000000000D+01  .630000000000D+02 -.195577740669D-07  .750000000000D+02
     .273366000000D+06  .400000000000D+01
30 16  5  4  5 59 44.0  .122300814837D-03  .329691829393D-11  .000000000000D+00
     .100000000000D+02 -.382500000000D+02  .509556939378D-08 -.252380183816D+01
    -.197999179363D-05  .199971289840D-02  .275857746601D-05  .515360350227D+04
     .280784000000D+06  .204890966415D-07  .141992559259D+01  .409781932831D-07
     .952149882762D+00  .322718750000D+03  .298527922923D+01 -.867178978628D-08
    -.251796202608D-09  .100000000000D+01  .189500000000D+04  .000000000000D+00
     .240000000000D+01  .000000000000D+00  .325962901115D-08  .100000000000D+02
     .273606000000D+06  .400000000000D+01
 1 16  5  4  6  0  0.0  .192881561816D-04  .113686837722D-11  .000000000000D+00
     .340000000000D+02 -.391562500000D+02  .512949937852D-08 -.193852132978D+01
    -.215694308281D-05  .536294619087D-02  .439770519733D-05  .515363725662D+04
     .280800000000D+06  .745058059692D-07 -.178372971619D+01 -.353902578354D-07
     .963820054265D+00  .295468750000D+03  .452830007696D+00 -.846463830045D-08
    -.105718689322D-09  .100000000000D+01  .189500000000D+04  .000000000000D+00
     .240000000000D+01  .000000000000D+00  .512227416039D-08  .340000000000D+02
     .273606000000D+06  .400000000000D+01
 2 16  5  4  6  0  0.0  .593767035753D-03 -.204636307899D-11  .000000000000D+00
     .490000000000D+02 -.253125000000D+02  .558737559376D-08 -.156917430467D+01
    -.106915831566D-05  .156652646838D-01  .295974314213D-05  .515376134300D+04
     .280800000000D+06  .335276126862D-06 -.182876254641D+01  .726431608200D-07
     .942598139522D+00  .308250000000D+03 -.212374830008D+01 -.861393023334D-08
     .314298806093D-10  .100000000000D+01  .189500000000D+04  .000000000000D+00
     .240000000000D+01  .000000000000D+00 -.200234353542D-07  .490000000000D+02
     .273606000000D+06  .400000000000D+01
 3 16  5  4  6  0  0.0 -.541754998267D-04 -.386535248253D-11  .000000000000D+00
     .320000000000D+02 -.270937500000D+02  .441589822560D-08 -.389870409633D+00
    -.149756669998D-05  .242426758632D-03  .132564455271D-04  .515371937752D+04
     .280800000000D+06 -.260770320892D-07 -.742018483271D+00 -.260770320892D-07
     .959340463055D+00  .119281250000D+03 -.221776875913D+01 -.793961643118D-08
    -.465019369923D-09  .100000000000D+01  .189500000000D+04  .000000000000D+00
     .240000000000D+01  .000000000000D+00  .186264514923D-08  .320000000000D+02
     .273606000000D+06  .400000000000D+01
 4 16  5  4  6  0  0.0 -.255652237684D-03 -.682121026330D-12  .000000000000D+00
     .760000000000D+02 -.559375000000D+02  .502735226654D-08  .124231806433D+01
    -.296160578728D-05  .846498750616D-02  .118892639875D-04  .515364257240D+04
     .280800000000D+06 -.931322574615D-07  .242232513728D+01  .204890966415D-07
     .983409778142D+00  .163468750000D+03  .877579596907D+00 -.779139597149D-08
    -.237867050975D-09  .100000000000D+01  .189500000000D+04  .000000000000D+00
     .340000000000D+01  .630000000000D+02 -.195577740669D-07  .760000000000D+02
     .273606000000D+06  .400000000000D+01
 5 16  5  4  6  0  0.0 -.123686622828D-03  .306954461848D-11  .000000000000D+00
     .900000000000D+02 -.445937500000D+02  .486770275936D-08  .942979610040D+00
    -.198744237423D-05  .457928527612D-02  .119060277939D-04  .515378672791D+04
     .280800000000D+06 -.111758708954D-07 -.753600895782D+00  .428408384323D-07
     .946409355646D+00  .141468750000D+03  .457596392292D+00 -.818355516363D-08
    -.508235455761D-09  .100000000000D+01  .189500000000D+04  .000000000000D+00
     .240000000000D+01  .000000000000D+00 -.107102096081D-07  .900000000000D+02
     .273606000000D+06  .400000000000D+01
 6 16  5  4  6  0  0.0  .185139477253D-03  .557065504836D-11  .000000000000D+00
     .260000000000D+02 -.306250000000D+02  .518450166959D-08 -.154885932014D+01
    -.153295695782D-05  .449233106337D-03  .409036874771D-05  .515367517471D+04
     .280800000000D+06 -.558793544769D-08 -.179216968265D+01  .279396772385D-07
     .963655797823D+00  .303750000000D+03 -.149197677887D+01 -.848213902942D-08
    -.118933525487D-09  .100000000000D+01  .189500000000D+04  .000000000000D+00
     .240000000000D+01  .000000000000D+00  .419095158577D-08  .260000000000D+02
     .273606000000D+06  .400000000000D+01
 7 16  5  4  6  0  0.0  .456580892205D-03 -.216004991671D-11  .000000000000D+00
     .470000000000D+02 -.359062500000D+02  .472805408529D-08 -.266950121839D+01
    -.190921127796D-05  .934183550999D-02  .286474823952D-05  .515364710045D+04
     .280800000000D+06 -.242143869400D-07  .137542992395D+01 -.521540641785D-07
     .966371668665D+00  .328593750000D+03 -.268023880010D+01 -.837142013182D-08
    -.187150652719D-09  .100000000000D+01  .189500000000D+04  .000000000000D+00
     .240000000000D+01  .000000000000D+00 -.111758708954D-07  .470000000000D+02
     .273606000000D+06  .400000000000D+01
 8 16  5  4  6  0  0.0 -.338107347488D-04 -.147792889038D-11  .000000000000D+00
     .230000000000D+02  .599062500000D+02  .456876173584D-08  .109269193841D+01
     .318139791489D-05  .178585469257D-02  .904500484467D-05  .515368312454D+04
     .280800000000D+06  .540167093277D-07 -.284395166557D+01 -.707805156708D-07
     .963250510999D+00  .205031250000D+03 -.114153208900D+01 -.815962559544D-08
     .708600944645D-09  .100000000000D+01  .189500000000D+04  .000000000000D+00
     .240000000000D+01  .000000000000D+00  .465661287308D-08  .230000000000D+02
     .273606000000D+06  .400000000000D+01
 9 16  5  4  6  0  0.0  .122341327369D-03  .738964445191D-11  .000000000000D+00
     .950000000000D+02  .111281250000D+03  .463733602080D-08 -.107783235387D+00
     .570714473724D-05  .613990705460D-03  .879913568497D-05  .515359240723D+04
     .280800000000D+06  .353902578354D-07  .297225653876D+00 -.540167093277D-07
     .955626276436D+00  .205937500000D+03  .219264852612D+01 -.823677166603D-08
     .343228582562D-09  .100000000000D+01  .189500000000D+04  .000000000000D+00
     .240000000000D+01  .000000000000D+00  .139698386192D-08  .950000000000D+02
     .273606000000D+06  .400000000000D+01
10 16  5  4  6  0  0.0 -.139330513775D-04 -.920863385545D-11  .000000000000D+00
     .440000000000D+02 -.211250000000D+02  .451125934063D-08  .201345226005D+01
    -.107474625111D-05  .145857257303D-02  .125020742416D-04  .515368921852D+04
     .280800000000D+06 -.409781932831D-07 -.746047514731D+00  .484287738800D-07
     .959581740671D+00  .140875000000D+03 -.273856933330D+01 -.794961684774D-08
    -.408588447920D-09  .100000000000D+01  .189500000000D+04  .000000000000D+00
     .240000000000D+01  .000000000000D+00  .232830643654D-08  .440000000000D+02
     .273606000000D+06  .400000000000D+01
